{
  "type": "FeatureCollection",
  "features": [
    {
      "type": "Feature",
      "properties": {
        "norad_id": 66907,
        "name": "1998-067XT",
        "group": "last-30-days",
        "lat": -36.92880204822157,
        "lon": -3.130644999292096,
        "alt_km": 413.4340769460314,
        "timestamp": "2025-12-13T03:42:10.038949+00:00",
        "meta_object_name": "1998-067XT",
        "meta_object_id": "1998-067XT",
        "meta_epoch": "2025-12-09T12:07:37.114752",
        "meta_mean_motion": 15.50864429,
        "meta_eccentricity": 0.00048036,
        "meta_inclination": 51.6307,
        "meta_ra_of_asc_node": 158.4423,
        "meta_arg_of_pericenter": 208.5081,
        "meta_mean_anomaly": 151.5646,
        "meta_ephemeris_type": 0,
        "meta_classification_type": "U",
        "meta_norad_cat_id": 66907,
        "meta_element_set_no": 999,
        "meta_rev_at_epoch": 111,
        "meta_bstar": 0.0012921241,
        "meta_mean_motion_dot": 0.00076342,
        "meta_mean_motion_ddot": 0,
        "tle_line1": "1 66907U 98067XT  25343.50529068  .00076342  00000+0  12921-2 0  9998",
        "tle_line2": "2 66907  51.6307 158.4423 0004803 208.5081 151.5646 15.50864429  1113"
      },
      "geometry": {
        "type": "Point",
        "coordinates": [
          -3.130644999292096,
          -36.92880204822157
        ]
      }
    },
    {
      "type": "Feature",
      "properties": {
        "norad_id": 66908,
        "name": "1998-067XU",
        "group": "last-30-days",
        "lat": -38.42966293466311,
        "lon": -0.7288042066492242,
        "alt_km": 413.16163596364004,
        "timestamp": "2025-12-13T03:42:10.038960+00:00",
        "meta_object_name": "1998-067XU",
        "meta_object_id": "1998-067XU",
        "meta_epoch": "2025-12-11T19:47:12.664032",
        "meta_mean_motion": 15.51346926,
        "meta_eccentricity": 0.00046963,
        "meta_inclination": 51.6299,
        "meta_ra_of_asc_node": 146.928,
        "meta_arg_of_pericenter": 220.0254,
        "meta_mean_anomaly": 140.039,
        "meta_ephemeris_type": 0,
        "meta_classification_type": "U",
        "meta_norad_cat_id": 66908,
        "meta_element_set_no": 999,
        "meta_rev_at_epoch": 147,
        "meta_bstar": 0.0013269788,
        "meta_mean_motion_dot": 0.00079814,
        "meta_mean_motion_ddot": 0,
        "tle_line1": "1 66908U 98067XU  25345.82445213  .00079814  00000+0  13270-2 0  9990",
        "tle_line2": "2 66908  51.6299 146.9280 0004696 220.0254 140.0390 15.51346926  1474"
      },
      "geometry": {
        "type": "Point",
        "coordinates": [
          -0.7288042066492242,
          -38.42966293466311
        ]
      }
    },
    {
      "type": "Feature",
      "properties": {
        "norad_id": 66909,
        "name": "SILVERSAT",
        "group": "last-30-days",
        "lat": -39.76363591103188,
        "lon": 1.5608935299914866,
        "alt_km": 412.99467062285476,
        "timestamp": "2025-12-13T03:42:10.038970+00:00",
        "meta_object_name": "SILVERSAT",
        "meta_object_id": "1998-067XV",
        "meta_epoch": "2025-12-11T19:46:46.158240",
        "meta_mean_motion": 15.51450033,
        "meta_eccentricity": 0.00045562,
        "meta_inclination": 51.63,
        "meta_ra_of_asc_node": 146.926,
        "meta_arg_of_pericenter": 222.0234,
        "meta_mean_anomaly": 138.0406,
        "meta_ephemeris_type": 0,
        "meta_classification_type": "U",
        "meta_norad_cat_id": 66909,
        "meta_element_set_no": 999,
        "meta_rev_at_epoch": 147,
        "meta_bstar": 0.0013718352,
        "meta_mean_motion_dot": 0.00082864,
        "meta_mean_motion_ddot": 0,
        "tle_line1": "1 66909U 98067XV  25345.82414535  .00082864  00000+0  13718-2 0  9990",
        "tle_line2": "2 66909  51.6300 146.9260 0004556 222.0234 138.0406 15.51450033  1471"
      },
      "geometry": {
        "type": "Point",
        "coordinates": [
          1.5608935299914866,
          -39.76363591103188
        ]
      }
    },
    {
      "type": "Feature",
      "properties": {
        "norad_id": 66910,
        "name": "1998-067XW",
        "group": "last-30-days",
        "lat": -44.412971771594016,
        "lon": 11.217575332925225,
        "alt_km": 412.87028657357223,
        "timestamp": "2025-12-13T03:42:10.039154+00:00",
        "meta_object_name": "1998-067XW",
        "meta_object_id": "1998-067XW",
        "meta_epoch": "2025-12-12T00:22:58.433376",
        "meta_mean_motion": 15.51622834,
        "meta_eccentricity": 0.00053767,
        "meta_inclination": 51.6296,
        "meta_ra_of_asc_node": 145.9572,
        "meta_arg_of_pericenter": 204.7962,
        "meta_mean_anomaly": 155.277,
        "meta_ephemeris_type": 0,
        "meta_classification_type": "U",
        "meta_norad_cat_id": 66910,
        "meta_element_set_no": 999,
        "meta_rev_at_epoch": 150,
        "meta_bstar": 0.0012086186,
        "meta_mean_motion_dot": 0.00073325,
        "meta_mean_motion_ddot": 0,
        "tle_line1": "1 66910U 98067XW  25346.01595409  .00073325  00000+0  12086-2 0  9993",
        "tle_line2": "2 66910  51.6296 145.9572 0005376 204.7962 155.2770 15.51622834  1507"
      },
      "geometry": {
        "type": "Point",
        "coordinates": [
          11.217575332925225,
          -44.412971771594016
        ]
      }
    },
    {
      "type": "Feature",
      "properties": {
        "norad_id": 66911,
        "name": "1998-067XX",
        "group": "last-30-days",
        "lat": -46.456628222524586,
        "lon": 16.76800033432239,
        "alt_km": 412.4296855271732,
        "timestamp": "2025-12-13T03:42:10.039169+00:00",
        "meta_object_name": "1998-067XX",
        "meta_object_id": "1998-067XX",
        "meta_epoch": "2025-12-12T03:27:33.883488",
        "meta_mean_motion": 15.51877198,
        "meta_eccentricity": 0.00050437,
        "meta_inclination": 51.6295,
        "meta_ra_of_asc_node": 145.3134,
        "meta_arg_of_pericenter": 206.7982,
        "meta_mean_anomaly": 153.2747,
        "meta_ephemeris_type": 0,
        "meta_classification_type": "U",
        "meta_norad_cat_id": 66911,
        "meta_element_set_no": 999,
        "meta_rev_at_epoch": 151,
        "meta_bstar": 0.0015037661,
        "meta_mean_motion_dot": 0.00092403,
        "meta_mean_motion_ddot": 0,
        "tle_line1": "1 66911U 98067XX  25346.14414217  .00092403  00000+0  15038-2 0  9993",
        "tle_line2": "2 66911  51.6295 145.3134 0005043 206.7982 153.2747 15.51877198  1518"
      },
      "geometry": {
        "type": "Point",
        "coordinates": [
          16.76800033432239,
          -46.456628222524586
        ]
      }
    },
    {
      "type": "Feature",
      "properties": {
        "norad_id": 66912,
        "name": "1998-067XY",
        "group": "last-30-days",
        "lat": -33.462518363234494,
        "lon": -8.083589495029074,
        "alt_km": 414.03919411512925,
        "timestamp": "2025-12-13T03:42:10.039179+00:00",
        "meta_object_name": "1998-067XY",
        "meta_object_id": "1998-067XY",
        "meta_epoch": "2025-12-11T19:48:45.131904",
        "meta_mean_motion": 15.51001955,
        "meta_eccentricity": 0.00047052,
        "meta_inclination": 51.6304,
        "meta_ra_of_asc_node": 146.936,
        "meta_arg_of_pericenter": 217.5082,
        "meta_mean_anomaly": 142.5579,
        "meta_ephemeris_type": 0,
        "meta_classification_type": "U",
        "meta_norad_cat_id": 66912,
        "meta_element_set_no": 999,
        "meta_rev_at_epoch": 146,
        "meta_bstar": 0.00099420433,
        "meta_mean_motion_dot": 0.0005879,
        "meta_mean_motion_ddot": 0,
        "tle_line1": "1 66912U 98067XY  25345.82552236  .00058790  00000+0  99420-3 0  9991",
        "tle_line2": "2 66912  51.6304 146.9360 0004705 217.5082 142.5579 15.51001955  1461"
      },
      "geometry": {
        "type": "Point",
        "coordinates": [
          -8.083589495029074,
          -33.462518363234494
        ]
      }
    },
    {
      "type": "Feature",
      "properties": {
        "norad_id": 66913,
        "name": "2025-284A",
        "group": "last-30-days",
        "lat": 14.08430914390021,
        "lon": -53.19324085547609,
        "alt_km": 503.3549750724542,
        "timestamp": "2025-12-13T03:42:10.039191+00:00",
        "meta_object_name": "2025-284A",
        "meta_object_id": "2025-284A",
        "meta_epoch": "2025-12-12T06:25:22.313568",
        "meta_mean_motion": 15.18953778,
        "meta_eccentricity": 0.0012049,
        "meta_inclination": 80.4045,
        "meta_ra_of_asc_node": 130.3632,
        "meta_arg_of_pericenter": 206.1305,
        "meta_mean_anomaly": 153.9317,
        "meta_ephemeris_type": 0,
        "meta_classification_type": "U",
        "meta_norad_cat_id": 66913,
        "meta_element_set_no": 999,
        "meta_rev_at_epoch": 105,
        "meta_bstar": 0.00069984194,
        "meta_mean_motion_dot": 0.00014684,
        "meta_mean_motion_ddot": 0,
        "tle_line1": "1 66913U 25284A   25346.26761937  .00014684  00000+0  69984-3 0  9998",
        "tle_line2": "2 66913  80.4045 130.3632 0012049 206.1305 153.9317 15.18953778  1058"
      },
      "geometry": {
        "type": "Point",
        "coordinates": [
          -53.19324085547609,
          14.08430914390021
        ]
      }
    }
  ]
}